{
  "type": "FeatureCollection",
  "features": [
    {
      "type": "Feature",
      "geometry": {
        "type": "Point",
        "coordinates": [
          85.8402,
          20.2701
        ]
      },
      "properties": {
        "asset_id": "PL-0101",
        "name": "North Feeder Pole",
        "asset_type": "pole",
        "status": "active",
        "condition_score": 8,
        "condition_band": "GOOD",
        "surveyor": "John Smith",
        "surveyed_on": "2026-08-03",
        "elevation_m": 12.4,
        "attributes": {
          "height_m": 9.5,
          "material": "concrete"
        }
      }
    },
    {
      "type": "Feature",
      "geometry": {
        "type": "Point",
        "coordinates": [
          85.841,
          20.2715
        ]
      },
      "properties": {
        "asset_id": "PL-0102",
        "name": "Unit 12 Feeder Pole",
        "asset_type": "pole",
        "status": "active",
        "condition_score": 7,
        "condition_band": "FAIR",
        "surveyor": "Rina Das",
        "surveyed_on": "2026-08-03",
        "elevation_m": null,
        "attributes": {
          "height_m": 8.0,
          "material": "steel"
        }
      }
    },
    {
      "type": "Feature",
      "geometry": {
        "type": "Point",
        "coordinates": [
          85.8371,
          20.2688
        ]
      },
      "properties": {
        "asset_id": "PL-0103",
        "name": "Old Town Junction Pole",
        "asset_type": "pole",
        "status": "active",
        "condition_score": 9,
        "condition_band": "GOOD",
        "surveyor": "Anita Sahu",
        "surveyed_on": "2026-08-04",
        "elevation_m": 11.0,
        "attributes": {
          "height_m": 10.2,
          "material": "concrete"
        }
      }
    },
    {
      "type": "Feature",
      "geometry": {
        "type": "Point",
        "coordinates": [
          85.8214,
          20.3532
        ]
      },
      "properties": {
        "asset_id": "PL-0104",
        "name": "Patia Ring Pole",
        "asset_type": "pole",
        "status": "active",
        "condition_score": 6,
        "condition_band": "FAIR",
        "surveyor": "Rina Das",
        "surveyed_on": "2026-08-05",
        "elevation_m": 14.1,
        "attributes": {
          "height_m": 9.0,
          "material": "concrete"
        }
      }
    },
    {
      "type": "Feature",
      "geometry": {
        "type": "Point",
        "coordinates": [
          85.819,
          20.3298
        ]
      },
      "properties": {
        "asset_id": "PL-0105",
        "name": "Chandrasekharpur Feeder Pole",
        "asset_type": "pole",
        "status": "active",
        "condition_score": 4,
        "condition_band": "POOR",
        "surveyor": "Bikash Mohanty",
        "surveyed_on": "2026-08-05",
        "elevation_m": null,
        "attributes": {
          "height_m": 8.5,
          "material": "wood"
        }
      }
    },
    {
      "type": "Feature",
      "geometry": {
        "type": "Point",
        "coordinates": [
          85.8245,
          20.2911
        ]
      },
      "properties": {
        "asset_id": "PL-0106",
        "name": "Nayapalli Market Pole",
        "asset_type": "pole",
        "status": "active",
        "condition_score": 10,
        "condition_band": "GOOD",
        "surveyor": "John Smith",
        "surveyed_on": "2026-08-06",
        "elevation_m": 13.2,
        "attributes": {
          "height_m": 11.0,
          "material": "steel"
        }
      }
    },
    {
      "type": "Feature",
      "geometry": {
        "type": "Point",
        "coordinates": [
          85.8438,
          20.2964
        ]
      },
      "properties": {
        "asset_id": "PL-0107",
        "name": "Saheed Nagar Pole 3",
        "asset_type": "pole",
        "status": "proposed",
        "condition_score": 8,
        "condition_band": "GOOD",
        "surveyor": "Anita Sahu",
        "surveyed_on": "2026-08-06",
        "elevation_m": 12.0,
        "attributes": {
          "height_m": 9.5,
          "material": "concrete"
        }
      }
    },
    {
      "type": "Feature",
      "geometry": {
        "type": "Point",
        "coordinates": [
          85.8382,
          20.304
        ]
      },
      "properties": {
        "asset_id": "PL-0108",
        "name": "Vani Vihar Campus Pole",
        "asset_type": "pole",
        "status": "active",
        "condition_score": 3,
        "condition_band": "POOR",
        "surveyor": "Bikash Mohanty",
        "surveyed_on": "2026-08-07",
        "elevation_m": null,
        "attributes": {
          "height_m": 7.5,
          "material": "wood"
        }
      }
    },
    {
      "type": "Feature",
      "geometry": {
        "type": "Point",
        "coordinates": [
          85.862,
          20.281
        ]
      },
      "properties": {
        "asset_id": "PL-0109",
        "name": "Rasulgarh Crossing Pole",
        "asset_type": "pole",
        "status": "decommissioned",
        "condition_score": 1,
        "condition_band": "CRITICAL",
        "surveyor": "Rina Das",
        "surveyed_on": "2026-08-07",
        "elevation_m": 15.0,
        "attributes": {
          "height_m": 8.0,
          "material": "concrete"
        }
      }
    },
    {
      "type": "Feature",
      "geometry": {
        "type": "Point",
        "coordinates": [
          85.8501,
          20.2655
        ]
      },
      "properties": {
        "asset_id": "PL-0110",
        "name": "Laxmisagar Tank Pole",
        "asset_type": "pole",
        "status": "active",
        "condition_score": 5,
        "condition_band": "FAIR",
        "surveyor": "Anita Sahu",
        "surveyed_on": "2026-08-08",
        "elevation_m": 11.8,
        "attributes": {
          "height_m": 9.0,
          "material": "steel"
        }
      }
    },
    {
      "type": "Feature",
      "geometry": {
        "type": "Point",
        "coordinates": [
          85.8554,
          20.2782
        ]
      },
      "properties": {
        "asset_id": "PL-0111",
        "name": "Cuttack Road Pole 14",
        "asset_type": "pole",
        "status": "active",
        "condition_score": 2,
        "condition_band": "CRITICAL",
        "surveyor": "Bikash Mohanty",
        "surveyed_on": "2026-08-08",
        "elevation_m": null,
        "attributes": {
          "height_m": 8.2,
          "material": "concrete"
        }
      }
    },
    {
      "type": "Feature",
      "geometry": {
        "type": "Point",
        "coordinates": [
          85.8447,
          20.2759
        ]
      },
      "properties": {
        "asset_id": "PL-0112",
        "name": "Bomikhal Flyover Pole",
        "asset_type": "pole",
        "status": "active",
        "condition_score": 7,
        "condition_band": "FAIR",
        "surveyor": "Rina Das",
        "surveyed_on": "2026-08-09",
        "elevation_m": 13.6,
        "attributes": {
          "height_m": 10.0,
          "material": "steel"
        }
      }
    },
    {
      "type": "Feature",
      "geometry": {
        "type": "Point",
        "coordinates": [
          85.8199,
          20.3095
        ]
      },
      "properties": {
        "asset_id": "PL-0113",
        "name": "Jaydev Vihar Pole",
        "asset_type": "pole",
        "status": "active",
        "condition_score": 9,
        "condition_band": "GOOD",
        "surveyor": "Anita Sahu",
        "surveyed_on": "2026-08-09",
        "elevation_m": 12.7,
        "attributes": {
          "height_m": 9.8,
          "material": "concrete"
        }
      }
    },
    {
      "type": "Feature",
      "geometry": {
        "type": "Point",
        "coordinates": [
          85.7854,
          20.2588
        ]
      },
      "properties": {
        "asset_id": "PL-0114",
        "name": "Khandagiri Square Pole",
        "asset_type": "pole",
        "status": "active",
        "condition_score": 6,
        "condition_band": "FAIR",
        "surveyor": "John Smith",
        "surveyed_on": "2026-08-10",
        "elevation_m": 18.4,
        "attributes": {
          "height_m": 9.2,
          "material": "concrete"
        }
      }
    },
    {
      "type": "Feature",
      "geometry": {
        "type": "Point",
        "coordinates": [
          85.8051,
          20.2669
        ]
      },
      "properties": {
        "asset_id": "PL-0115",
        "name": "Baramunda Depot Pole",
        "asset_type": "pole",
        "status": "proposed",
        "condition_score": 8,
        "condition_band": "GOOD",
        "surveyor": "Bikash Mohanty",
        "surveyed_on": "2026-08-10",
        "elevation_m": null,
        "attributes": {
          "height_m": 10.5,
          "material": "steel"
        }
      }
    },
    {
      "type": "Feature",
      "geometry": {
        "type": "Point",
        "coordinates": [
          85.8312,
          20.2876
        ]
      },
      "properties": {
        "asset_id": "PL-0116",
        "name": "Surya Nagar Pole 2",
        "asset_type": "pole",
        "status": "active",
        "condition_score": 4,
        "condition_band": "POOR",
        "surveyor": "Rina Das",
        "surveyed_on": "2026-08-11",
        "elevation_m": 12.1,
        "attributes": {
          "height_m": 8.4,
          "material": "wood"
        }
      }
    },
    {
      "type": "Feature",
      "geometry": {
        "type": "Point",
        "coordinates": [
          85.8133,
          20.3144
        ]
      },
      "properties": {
        "asset_id": "PL-0117",
        "name": "Irc Village Pole",
        "asset_type": "pole",
        "status": "active",
        "condition_score": 7,
        "condition_band": "FAIR",
        "surveyor": "Anita Sahu",
        "surveyed_on": "2026-08-11",
        "elevation_m": 13.0,
        "attributes": {
          "height_m": 9.1,
          "material": "concrete"
        }
      }
    },
    {
      "type": "Feature",
      "geometry": {
        "type": "Point",
        "coordinates": [
          85.8288,
          20.321
        ]
      },
      "properties": {
        "asset_id": "PL-0118",
        "name": "Gajapati Nagar Pole",
        "asset_type": "pole",
        "status": "active",
        "condition_score": 5,
        "condition_band": "FAIR",
        "surveyor": "Bikash Mohanty",
        "surveyed_on": "2026-08-12",
        "elevation_m": null,
        "attributes": {
          "height_m": 8.8,
          "material": "steel"
        }
      }
    },
    {
      "type": "Feature",
      "geometry": {
        "type": "Point",
        "coordinates": [
          85.8186,
          20.2724
        ]
      },
      "properties": {
        "asset_id": "PL-0119",
        "name": "Delta Square Pole",
        "asset_type": "pole",
        "status": "decommissioned",
        "condition_score": 2,
        "condition_band": "CRITICAL",
        "surveyor": "Rina Das",
        "surveyed_on": "2026-08-12",
        "elevation_m": 12.9,
        "attributes": {
          "height_m": 7.8,
          "material": "concrete"
        }
      }
    },
    {
      "type": "Feature",
      "geometry": {
        "type": "Point",
        "coordinates": [
          85.8429,
          20.2681
        ]
      },
      "properties": {
        "asset_id": "PL-0120",
        "name": "Master Canteen Pole",
        "asset_type": "pole",
        "status": "active",
        "condition_score": 8,
        "condition_band": "GOOD",
        "surveyor": "Anita Sahu",
        "surveyed_on": "2026-08-13",
        "elevation_m": 11.5,
        "attributes": {
          "height_m": 9.6,
          "material": "steel"
        }
      }
    },
    {
      "type": "Feature",
      "geometry": {
        "type": "Point",
        "coordinates": [
          85.8394,
          20.2692
        ]
      },
      "properties": {
        "asset_id": "VL-0201",
        "name": "Unit 4 Inlet Valve",
        "asset_type": "valve",
        "status": "active",
        "condition_score": 7,
        "condition_band": "FAIR",
        "surveyor": "Bikash Mohanty",
        "surveyed_on": "2026-08-13",
        "elevation_m": 4.2,
        "attributes": {
          "bore_mm": 150,
          "material": "cast_iron"
        }
      }
    },
    {
      "type": "Feature",
      "geometry": {
        "type": "Point",
        "coordinates": [
          85.823,
          20.3511
        ]
      },
      "properties": {
        "asset_id": "VL-0202",
        "name": "Patia Ring Main Valve",
        "asset_type": "valve",
        "status": "active",
        "condition_score": 6,
        "condition_band": "FAIR",
        "surveyor": "Rina Das",
        "surveyed_on": "2026-08-14",
        "elevation_m": null,
        "attributes": {
          "bore_mm": 200,
          "material": "steel"
        }
      }
    },
    {
      "type": "Feature",
      "geometry": {
        "type": "Point",
        "coordinates": [
          85.8211,
          20.331
        ]
      },
      "properties": {
        "asset_id": "VL-0203",
        "name": "Chandrasekharpur Valve 2",
        "asset_type": "valve",
        "status": "active",
        "condition_score": 3,
        "condition_band": "POOR",
        "surveyor": "Anita Sahu",
        "surveyed_on": "2026-08-14",
        "elevation_m": 5.1,
        "attributes": {
          "bore_mm": 100,
          "material": "cast_iron"
        }
      }
    },
    {
      "type": "Feature",
      "geometry": {
        "type": "Point",
        "coordinates": [
          85.826,
          20.2924
        ]
      },
      "properties": {
        "asset_id": "VL-0204",
        "name": "Nayapalli Isolation Valve",
        "asset_type": "valve",
        "status": "proposed",
        "condition_score": 9,
        "condition_band": "GOOD",
        "surveyor": "John Smith",
        "surveyed_on": "2026-08-15",
        "elevation_m": 4.8,
        "attributes": {
          "bore_mm": 150,
          "material": "steel"
        }
      }
    },
    {
      "type": "Feature",
      "geometry": {
        "type": "Point",
        "coordinates": [
          85.8451,
          20.2977
        ]
      },
      "properties": {
        "asset_id": "VL-0205",
        "name": "Saheed Nagar Valve",
        "asset_type": "valve",
        "status": "active",
        "condition_score": 8,
        "condition_band": "GOOD",
        "surveyor": "Bikash Mohanty",
        "surveyed_on": "2026-08-15",
        "elevation_m": null,
        "attributes": {
          "bore_mm": 250,
          "material": "cast_iron"
        }
      }
    },
    {
      "type": "Feature",
      "geometry": {
        "type": "Point",
        "coordinates": [
          85.8396,
          20.3055
        ]
      },
      "properties": {
        "asset_id": "VL-0206",
        "name": "Vani Vihar Valve Pit",
        "asset_type": "valve",
        "status": "active",
        "condition_score": 4,
        "condition_band": "POOR",
        "surveyor": "Rina Das",
        "surveyed_on": "2026-08-16",
        "elevation_m": 3.9,
        "attributes": {
          "bore_mm": 80,
          "material": "brass"
        }
      }
    },
    {
      "type": "Feature",
      "geometry": {
        "type": "Point",
        "coordinates": [
          85.8633,
          20.2822
        ]
      },
      "properties": {
        "asset_id": "VL-0207",
        "name": "Rasulgarh Chamber Valve",
        "asset_type": "valve",
        "status": "decommissioned",
        "condition_score": 0,
        "condition_band": "CRITICAL",
        "surveyor": "Anita Sahu",
        "surveyed_on": "2026-08-16",
        "elevation_m": 4.4,
        "attributes": {
          "bore_mm": 150,
          "material": "cast_iron"
        }
      }
    },
    {
      "type": "Feature",
      "geometry": {
        "type": "Point",
        "coordinates": [
          85.8514,
          20.2668
        ]
      },
      "properties": {
        "asset_id": "VL-0208",
        "name": "Laxmisagar Outlet Valve",
        "asset_type": "valve",
        "status": "active",
        "condition_score": 5,
        "condition_band": "FAIR",
        "surveyor": "Bikash Mohanty",
        "surveyed_on": "2026-08-17",
        "elevation_m": null,
        "attributes": {
          "bore_mm": 200,
          "material": "steel"
        }
      }
    },
    {
      "type": "Feature",
      "geometry": {
        "type": "Point",
        "coordinates": [
          85.8568,
          20.2794
        ]
      },
      "properties": {
        "asset_id": "VL-0209",
        "name": "Cuttack Road Valve 7",
        "asset_type": "valve",
        "status": "active",
        "condition_score": 2,
        "condition_band": "CRITICAL",
        "surveyor": "Rina Das",
        "surveyed_on": "2026-08-17",
        "elevation_m": 4.0,
        "attributes": {
          "bore_mm": 100,
          "material": "cast_iron"
        }
      }
    },
    {
      "type": "Feature",
      "geometry": {
        "type": "Point",
        "coordinates": [
          85.846,
          20.2768
        ]
      },
      "properties": {
        "asset_id": "VL-0210",
        "name": "Bomikhal Bypass Valve",
        "asset_type": "valve",
        "status": "active",
        "condition_score": 7,
        "condition_band": "FAIR",
        "surveyor": "Anita Sahu",
        "surveyed_on": "2026-08-18",
        "elevation_m": 4.6,
        "attributes": {
          "bore_mm": 150,
          "material": "steel"
        }
      }
    },
    {
      "type": "Feature",
      "geometry": {
        "type": "Point",
        "coordinates": [
          85.821,
          20.3108
        ]
      },
      "properties": {
        "asset_id": "VL-0211",
        "name": "Jaydev Vihar Valve",
        "asset_type": "valve",
        "status": "active",
        "condition_score": 9,
        "condition_band": "GOOD",
        "surveyor": "John Smith",
        "surveyed_on": "2026-08-18",
        "elevation_m": null,
        "attributes": {
          "bore_mm": 300,
          "material": "steel"
        }
      }
    },
    {
      "type": "Feature",
      "geometry": {
        "type": "Point",
        "coordinates": [
          85.7869,
          20.2601
        ]
      },
      "properties": {
        "asset_id": "VL-0212",
        "name": "Khandagiri Inlet Valve",
        "asset_type": "valve",
        "status": "active",
        "condition_score": 6,
        "condition_band": "FAIR",
        "surveyor": "Bikash Mohanty",
        "surveyed_on": "2026-08-19",
        "elevation_m": 6.2,
        "attributes": {
          "bore_mm": 200,
          "material": "cast_iron"
        }
      }
    },
    {
      "type": "Feature",
      "geometry": {
        "type": "Point",
        "coordinates": [
          85.836,
          20.2674
        ]
      },
      "properties": {
        "asset_id": "MH-0301",
        "name": "Old Town Chamber",
        "asset_type": "manhole",
        "status": "active",
        "condition_score": 8,
        "condition_band": "GOOD",
        "surveyor": "Rina Das",
        "surveyed_on": "2026-08-19",
        "elevation_m": 2.1,
        "attributes": {
          "depth_m": 2.4,
          "cover": "cast_iron"
        }
      }
    },
    {
      "type": "Feature",
      "geometry": {
        "type": "Point",
        "coordinates": [
          85.8244,
          20.352
        ]
      },
      "properties": {
        "asset_id": "MH-0302",
        "name": "Patia Ug Chamber 1",
        "asset_type": "manhole",
        "status": "active",
        "condition_score": 5,
        "condition_band": "FAIR",
        "surveyor": "Anita Sahu",
        "surveyed_on": "2026-08-20",
        "elevation_m": null,
        "attributes": {
          "depth_m": 2.0,
          "cover": "concrete"
        }
      }
    },
    {
      "type": "Feature",
      "geometry": {
        "type": "Point",
        "coordinates": [
          85.8182,
          20.3288
        ]
      },
      "properties": {
        "asset_id": "MH-0303",
        "name": "Chandrasekharpur Chamber",
        "asset_type": "manhole",
        "status": "active",
        "condition_score": 3,
        "condition_band": "POOR",
        "surveyor": "Bikash Mohanty",
        "surveyed_on": "2026-08-20",
        "elevation_m": 2.4,
        "attributes": {
          "depth_m": 2.8,
          "cover": "cast_iron"
        }
      }
    },
    {
      "type": "Feature",
      "geometry": {
        "type": "Point",
        "coordinates": [
          85.8233,
          20.2902
        ]
      },
      "properties": {
        "asset_id": "MH-0304",
        "name": "Nayapalli Ug Chamber",
        "asset_type": "manhole",
        "status": "proposed",
        "condition_score": 7,
        "condition_band": "FAIR",
        "surveyor": "Rina Das",
        "surveyed_on": "2026-08-21",
        "elevation_m": 2.0,
        "attributes": {
          "depth_m": 2.2,
          "cover": "steel"
        }
      }
    },
    {
      "type": "Feature",
      "geometry": {
        "type": "Point",
        "coordinates": [
          85.8446,
          20.2955
        ]
      },
      "properties": {
        "asset_id": "MH-0305",
        "name": "Saheed Nagar Chamber 4",
        "asset_type": "manhole",
        "status": "active",
        "condition_score": 6,
        "condition_band": "FAIR",
        "surveyor": "Anita Sahu",
        "surveyed_on": "2026-08-21",
        "elevation_m": 2.3,
        "attributes": {
          "depth_m": 2.5,
          "cover": "cast_iron"
        }
      }
    },
    {
      "type": "Feature",
      "geometry": {
        "type": "Point",
        "coordinates": [
          85.8374,
          20.3033
        ]
      },
      "properties": {
        "asset_id": "MH-0306",
        "name": "Vani Vihar Ug Chamber",
        "asset_type": "manhole",
        "status": "active",
        "condition_score": 4,
        "condition_band": "POOR",
        "surveyor": "John Smith",
        "surveyed_on": "2026-08-22",
        "elevation_m": null,
        "attributes": {
          "depth_m": 1.8,
          "cover": "concrete"
        }
      }
    },
    {
      "type": "Feature",
      "geometry": {
        "type": "Point",
        "coordinates": [
          85.8611,
          20.2804
        ]
      },
      "properties": {
        "asset_id": "MH-0307",
        "name": "Rasulgarh Cable Chamber",
        "asset_type": "manhole",
        "status": "decommissioned",
        "condition_score": 1,
        "condition_band": "CRITICAL",
        "surveyor": "Bikash Mohanty",
        "surveyed_on": "2026-08-22",
        "elevation_m": 2.6,
        "attributes": {
          "depth_m": 2.1,
          "cover": "cast_iron"
        }
      }
    },
    {
      "type": "Feature",
      "geometry": {
        "type": "Point",
        "coordinates": [
          85.849,
          20.2649
        ]
      },
      "properties": {
        "asset_id": "MH-0308",
        "name": "Laxmisagar Chamber",
        "asset_type": "manhole",
        "status": "active",
        "condition_score": 9,
        "condition_band": "GOOD",
        "surveyor": "Rina Das",
        "surveyed_on": "2026-08-23",
        "elevation_m": 2.2,
        "attributes": {
          "depth_m": 2.6,
          "cover": "steel"
        }
      }
    },
    {
      "type": "Feature",
      "geometry": {
        "type": "Point",
        "coordinates": [
          85.8542,
          20.2775
        ]
      },
      "properties": {
        "asset_id": "MH-0309",
        "name": "Cuttack Road Chamber",
        "asset_type": "manhole",
        "status": "active",
        "condition_score": 2,
        "condition_band": "CRITICAL",
        "surveyor": "Anita Sahu",
        "surveyed_on": "2026-08-23",
        "elevation_m": null,
        "attributes": {
          "depth_m": 2.0,
          "cover": "cast_iron"
        }
      }
    },
    {
      "type": "Feature",
      "geometry": {
        "type": "Point",
        "coordinates": [
          85.8439,
          20.2748
        ]
      },
      "properties": {
        "asset_id": "MH-0310",
        "name": "Bomikhal Ug Chamber",
        "asset_type": "manhole",
        "status": "active",
        "condition_score": 7,
        "condition_band": "FAIR",
        "surveyor": "Bikash Mohanty",
        "surveyed_on": "2026-08-24",
        "elevation_m": 2.5,
        "attributes": {
          "depth_m": 2.3,
          "cover": "concrete"
        }
      }
    },
    {
      "type": "Feature",
      "geometry": {
        "type": "Point",
        "coordinates": [
          85.8205,
          20.3502
        ]
      },
      "properties": {
        "asset_id": "TR-0401",
        "name": "Patia 250 Kva Unit",
        "asset_type": "transformer",
        "status": "active",
        "condition_score": 8,
        "condition_band": "GOOD",
        "surveyor": "Rina Das",
        "surveyed_on": "2026-08-24",
        "elevation_m": 16.0,
        "attributes": {
          "rating_kva": 250,
          "phase": 3
        }
      }
    },
    {
      "type": "Feature",
      "geometry": {
        "type": "Point",
        "coordinates": [
          85.8176,
          20.3304
        ]
      },
      "properties": {
        "asset_id": "TR-0402",
        "name": "Chandrasekharpur 100 Kva",
        "asset_type": "transformer",
        "status": "active",
        "condition_score": 6,
        "condition_band": "FAIR",
        "surveyor": "Anita Sahu",
        "surveyed_on": "2026-08-25",
        "elevation_m": null,
        "attributes": {
          "rating_kva": 100,
          "phase": 3
        }
      }
    },
    {
      "type": "Feature",
      "geometry": {
        "type": "Point",
        "coordinates": [
          85.8252,
          20.2933
        ]
      },
      "properties": {
        "asset_id": "TR-0403",
        "name": "Nayapalli 63 Kva",
        "asset_type": "transformer",
        "status": "active",
        "condition_score": 4,
        "condition_band": "POOR",
        "surveyor": "John Smith",
        "surveyed_on": "2026-08-25",
        "elevation_m": 15.2,
        "attributes": {
          "rating_kva": 63,
          "phase": 3
        }
      }
    },
    {
      "type": "Feature",
      "geometry": {
        "type": "Point",
        "coordinates": [
          85.8466,
          20.2981
        ]
      },
      "properties": {
        "asset_id": "TR-0404",
        "name": "Saheed Nagar 250 Kva",
        "asset_type": "transformer",
        "status": "proposed",
        "condition_score": 9,
        "condition_band": "GOOD",
        "surveyor": "Bikash Mohanty",
        "surveyed_on": "2026-08-26",
        "elevation_m": 16.4,
        "attributes": {
          "rating_kva": 250,
          "phase": 3
        }
      }
    },
    {
      "type": "Feature",
      "geometry": {
        "type": "Point",
        "coordinates": [
          85.8408,
          20.3062
        ]
      },
      "properties": {
        "asset_id": "TR-0405",
        "name": "Vani Vihar 160 Kva",
        "asset_type": "transformer",
        "status": "active",
        "condition_score": 7,
        "condition_band": "FAIR",
        "surveyor": "Rina Das",
        "surveyed_on": "2026-08-26",
        "elevation_m": null,
        "attributes": {
          "rating_kva": 160,
          "phase": 3
        }
      }
    },
    {
      "type": "Feature",
      "geometry": {
        "type": "Point",
        "coordinates": [
          85.864,
          20.2835
        ]
      },
      "properties": {
        "asset_id": "TR-0406",
        "name": "Rasulgarh 100 Kva",
        "asset_type": "transformer",
        "status": "decommissioned",
        "condition_score": 2,
        "condition_band": "CRITICAL",
        "surveyor": "Anita Sahu",
        "surveyed_on": "2026-08-27",
        "elevation_m": 14.8,
        "attributes": {
          "rating_kva": 100,
          "phase": 3
        }
      }
    },
    {
      "type": "Feature",
      "geometry": {
        "type": "Point",
        "coordinates": [
          85.8522,
          20.2659
        ]
      },
      "properties": {
        "asset_id": "TR-0407",
        "name": "Laxmisagar 63 Kva",
        "asset_type": "transformer",
        "status": "active",
        "condition_score": 3,
        "condition_band": "POOR",
        "surveyor": "Bikash Mohanty",
        "surveyed_on": "2026-08-27",
        "elevation_m": 14.1,
        "attributes": {
          "rating_kva": 63,
          "phase": 1
        }
      }
    },
    {
      "type": "Feature",
      "geometry": {
        "type": "Point",
        "coordinates": [
          85.8577,
          20.28
        ]
      },
      "properties": {
        "asset_id": "TR-0408",
        "name": "Cuttack Road 250 Kva",
        "asset_type": "transformer",
        "status": "active",
        "condition_score": 5,
        "condition_band": "FAIR",
        "surveyor": "Rina Das",
        "surveyed_on": "2026-08-28",
        "elevation_m": null,
        "attributes": {
          "rating_kva": 250,
          "phase": 3
        }
      }
    },
    {
      "type": "Feature",
      "geometry": {
        "type": "Point",
        "coordinates": [
          85.7878,
          20.2594
        ]
      },
      "properties": {
        "asset_id": "TR-0409",
        "name": "Khandagiri 160 Kva",
        "asset_type": "transformer",
        "status": "active",
        "condition_score": 8,
        "condition_band": "GOOD",
        "surveyor": "Anita Sahu",
        "surveyed_on": "2026-08-28",
        "elevation_m": 19.0,
        "attributes": {
          "rating_kva": 160,
          "phase": 3
        }
      }
    },
    {
      "type": "Feature",
      "geometry": {
        "type": "Point",
        "coordinates": [
          85.8064,
          20.2677
        ]
      },
      "properties": {
        "asset_id": "TR-0410",
        "name": "Baramunda 315 Kva",
        "asset_type": "transformer",
        "status": "active",
        "condition_score": 10,
        "condition_band": "GOOD",
        "surveyor": "John Smith",
        "surveyed_on": "2026-08-29",
        "elevation_m": 15.6,
        "attributes": {
          "rating_kva": 315,
          "phase": 3
        }
      }
    }
  ]
}